NORAD_CAT_ID,OBJECT_NAME,OBJECT_TYPE,EPOCH,MEAN_MOTION,ECCENTRICITY,INCLINATION,RA_OF_ASC_NODE,ARG_OF_PERICENTER,MEAN_ANOMALY,BSTAR,MEAN_MOTION_DOT,MEAN_MOTION_DDOT,TLE_LINE0,TLE_LINE1,TLE_LINE2,SEMIMAJOR_AXIS,PERIOD,APOGEE,PERIGEE,DECAYED
53595.0,STARLINK-4684,PAYLOAD,2023-11-26 10:55:52,15.08858301,0.0001986,53.2192,29.1606,108.9007,251.2201,0.0003575,5.409e-05,0.0,0 STARLINK-4684,1 53595U 22104H   23330.45547305  .00005409  00000-0  35750-3 0  9991,2 53595  53.2192  29.1606 0001986 108.9007 251.2201 15.08858301 69393,6917.824,95.436,541.063,538.316,0.0
53595.0,STARLINK-4684,PAYLOAD,2023-11-27 04:25:08,15.08825135,0.0001869,53.2191,25.8867,106.1941,253.9257,-0.00033914,-5.679e-05,0.0,0 STARLINK-4684,1 53595U 22104H   23331.18413133 -.00005679  00000-0 -33914-3 0  9994,2 53595  53.2191  25.8867 0001869 106.1941 253.9257 15.08825135 69503,6917.926,95.438,541.084,538.498,0.0
53595.0,STARLINK-4684,PAYLOAD,2023-11-27 10:46:42,15.08808042,0.0001825,53.2187,24.6994,97.7317,262.3882,-0.00051286,-8.434e-05,0.0,0 STARLINK-4684,1 53595U 22104H   23331.44910302 -.00008434  00000-0 -51286-3 0  9997,2 53595  53.2187  24.6994 0001825  97.7317 262.3882 15.08808042 69540,6917.978,95.44,541.106,538.581,0.0
53595.0,STARLINK-4684,PAYLOAD,2023-11-28 12:12:51,15.0884654,0.0001744,53.2184,19.9392,90.1802,269.939,0.00022652,3.319e-05,0.0,0 STARLINK-4684,1 53595U 22104H   23332.50893379  .00003319  00000-0  22652-3 0  9999,2 53595  53.2184  19.9392 0001744  90.1802 269.9390 15.08846540 69702,6917.86,95.437,540.932,538.519,0.0
53595.0,STARLINK-4684,PAYLOAD,2023-11-28 13:48:15,15.08847032,0.0001761,53.2185,19.6415,89.6158,270.5036,0.00024075,3.546e-05,0.0,0 STARLINK-4684,1 53595U 22104H   23332.57517392  .00003546  00000-0  24075-3 0  9997,2 53595  53.2185  19.6415 0001761  89.6158 270.5036 15.08847032 70324,6917.859,95.437,540.942,538.506,0.0
53595.0,STARLINK-4684,PAYLOAD,2023-11-29 12:03:38,15.0885632,0.0002173,53.2188,15.4771,90.2797,269.8445,0.00056412,8.705e-05,0.0,0 STARLINK-4684,1 53595U 22104H   23333.50253358  .00008705  00000-0  56412-3 0  9992,2 53595  53.2188  15.4771 0002173  90.2797 269.8445 15.08856320 70461,6917.831,95.437,541.199,538.192,0.0
53595.0,STARLINK-4684,PAYLOAD,2023-11-30 02:22:07,15.08840473,0.0001313,53.2189,12.8018,85.516,274.5982,-0.0001566,-2.779e-05,0.0,0 STARLINK-4684,1 53595U 22104H   23334.09869903 -.00002779  00000-0 -15660-3 0  9993,2 53595  53.2189  12.8018 0001313  85.5160 274.5982 15.08840473 69945,6917.879,95.438,540.652,538.836,0.0
53595.0,STARLINK-4684,PAYLOAD,2023-11-30 10:19:02,15.08851227,0.000193,53.218,11.3166,84.7601,275.3612,1.4712e-05,-5.4e-07,0.0,0 STARLINK-4684,1 53595U 22104H   23334.42989316 -.00000054  00000-0  14712-4 0  9992,2 53595  53.2180  11.3166 0001930  84.7601 275.3612 15.08851227 69993,6917.846,95.437,541.046,538.376,0.0
53595.0,STARLINK-4684,PAYLOAD,2023-12-01 02:12:54,15.08843162,0.0002158,53.218,8.3461,78.3144,281.809,-9.3935e-07,-3.03e-06,0.0,0 STARLINK-4684,1 53595U 22104H   23335.09229678 -.00000303  00000-0 -93935-6 0  9998,2 53595  53.2180   8.3461 0002158  78.3144 281.8090 15.08843162 70095,6917.871,95.437,541.229,538.243,0.0
53595.0,STARLINK-4684,PAYLOAD,2023-12-01 08:34:26,15.08844984,0.0002081,53.2183,7.156,79.242,280.8806,-8.3384e-05,-1.615e-05,0.0,0 STARLINK-4684,1 53595U 22104H   23335.35725601 -.00001615  00000-0 -83384-4 0  9996,2 53595  53.2183   7.1560 0002081  79.2420 280.8806 15.08844984 70746,6917.865,95.437,541.17,538.291,0.0
53595.0,STARLINK-4684,PAYLOAD,2023-12-02 08:25:11,15.08881849,0.0002015,53.2178,2.6957,91.0475,269.0748,0.00065404,0.00010148,0.0,0 STARLINK-4684,1 53595U 22104H   23336.35083231  .00010148  00000-0  65404-3 0  9994,2 53595  53.2178   2.6957 0002015  91.0475 269.0748 15.08881849 70283,6917.752,95.435,541.011,538.224,0.0
53595.0,STARLINK-4684,PAYLOAD,2023-12-03 11:26:48,15.08811232,0.0001597,53.2171,357.636,90.8128,269.3047,-0.00039147,-6.508e-05,0.0,0 STARLINK-4684,1 53595U 22104H   23337.47694876 -.00006508  00000-0 -39147-3 0  9993,2 53595  53.2171 357.6360 0001597  90.8128 269.3047 15.08811232 70456,6917.968,95.439,540.938,538.729,0.0
53595.0,STARLINK-4684,PAYLOAD,2023-12-04 08:06:48,15.08830889,0.0002247,53.2189,353.7713,77.2883,282.836,-0.0001905,-3.318e-05,0.0,0 STARLINK-4684,1 53595U 22104H   23338.33806667 -.00003318  00000-0 -19050-3 0  9999,2 53595  53.2189 353.7713 0002247  77.2883 282.8360 15.08830889 70585,6917.908,95.438,541.328,538.219,0.0
53595.0,STARLINK-4684,PAYLOAD,2023-12-05 01:36:04,15.08846723,0.0001783,53.2171,350.5011,85.9059,274.2136,0.00085691,0.00013379,0.0,0 STARLINK-4684,1 53595U 22104H   23339.06671401  .00013379  00000-0  85691-3 0  9996,2 53595  53.2171 350.5011 0001783  85.9059 274.2136 15.08846723 70699,6917.86,95.437,540.958,538.491,0.0
53595.0,STARLINK-4684,PAYLOAD,2023-12-05 06:22:13,15.08873161,0.0001909,53.2171,349.6091,77.4999,282.6206,0.0012326,0.00019401,0.0,0 STARLINK-4684,1 53595U 22104H   23339.26542873  .00019401  00000-0  12326-2 0  9994,2 53595  53.2171 349.6091 0001909  77.4999 282.6206 15.08873161 70726,6917.779,95.435,540.965,538.323,0.0
53595.0,STARLINK-4684,PAYLOAD,2023-12-06 04:37:35,15.08873378,0.0002148,53.2174,345.4477,107.0496,253.0731,0.00078563,0.00012249,0.0,0 STARLINK-4684,1 53595U 22104H   23340.19277765  .00012249  00000-0  78563-3 0  9992,2 53595  53.2174 345.4477 0002148 107.0496 253.0731 15.08873378 70869,6917.778,95.435,541.129,538.157,0.0
53595.0,STARLINK-4684,PAYLOAD,2023-12-06 06:12:59,15.08866574,0.0002137,53.2173,345.1512,112.9798,247.142,0.001018,0.00015962,0.0,0 STARLINK-4684,1 53595U 22104H   23340.25901765  .00015962  00000-0  10180-2 0  9998,2 53595  53.2173 345.1512 0002137 112.9798 247.1420 15.08866574 71481,6917.799,95.436,541.142,538.186,0.0
53595.0,STARLINK-4684,PAYLOAD,2023-12-07 04:28:23,15.08845912,0.0002091,53.2167,340.9872,110.2629,249.8588,0.00095014,0.00014868,0.0,0 STARLINK-4684,1 53595U 22104H   23341.18637941  .00014868  00000-0  95014-3 0  9997,2 53595  53.2167 340.9872 0002091 110.2629 249.8588 15.08845912 71015,6917.862,95.437,541.174,538.281,0.0
53595.0,STARLINK-4684,PAYLOAD,2023-12-07 09:14:32,15.08840257,0.0001763,53.2159,340.0923,90.533,269.5864,0.0002151,3.137e-05,0.0,0 STARLINK-4684,1 53595U 22104H   23341.38510011  .00003137  00000-0  21510-3 0  9994,2 53595  53.2159 340.0923 0001763  90.5330 269.5864 15.08840257 71044,6917.88,95.438,540.964,538.525,0.0
53595.0,STARLINK-4684,PAYLOAD,2023-12-08 09:05:19,15.08846511,0.0001996,53.2173,335.6282,83.2074,276.9146,0.00013114,1.8e-05,0.0,0 STARLINK-4684,1 53595U 22104H   23342.37870050  .00001800  00000-0  13114-3 0  9992,2 53595  53.2173 335.6282 0001996  83.2074 276.9146 15.08846511 71808,6917.86,95.437,541.106,538.345,0.0
53595.0,STARLINK-4684,PAYLOAD,2023-12-09 04:09:57,15.08840252,0.0001867,53.2169,332.0643,95.1312,264.9894,8.5198e-05,1.068e-05,0.0,0 STARLINK-4684,1 53595U 22104H   23343.17358454  .00001068  00000-0  85198-4 0  9998,2 53595  53.2169 332.0643 0001867  95.1312 264.9894 15.08840252 71318,6917.88,95.438,541.036,538.453,0.0
53595.0,STARLINK-4684,PAYLOAD,2023-12-09 08:56:06,15.08843676,0.0001806,53.2164,331.1708,98.4878,261.6319,0.00015935,2.249e-05,0.0,0 STARLINK-4684,1 53595U 22104H   23343.37230250  .00002249  00000-0  15935-3 0  9996,2 53595  53.2164 331.1708 0001806  98.4878 261.6319 15.08843676 71950,6917.869,95.437,540.984,538.485,0.0
53595.0,STARLINK-4684,PAYLOAD,2023-12-10 08:46:53,15.08845376,0.0001881,53.2158,326.7097,109.1691,250.9505,0.00010205,1.337e-05,0.0,0 STARLINK-4684,1 53595U 22104H   23344.36590102  .00001337  00000-0  10205-3 0  9993,2 53595  53.2158 326.7097 0001881 109.1691 250.9505 15.08845376 71496,6917.864,95.437,541.03,538.428,0.0
53595.0,STARLINK-4684,PAYLOAD,2023-12-11 03:51:31,15.08842017,0.00019,53.217,323.1415,101.179,258.9416,6.7591e-05,7.88e-06,0.0,0 STARLINK-4684,1 53595U 22104H   23345.16078255  .00000788  00000-0  67591-4 0  9992,2 53595  53.2170 323.1415 0001900 101.1790 258.9416 15.08842017 71611,6917.874,95.437,541.054,538.425,0.0
53595.0,STARLINK-4684,PAYLOAD,2023-12-12 03:42:19,15.08836186,0.0001824,53.2175,318.6822,100.5913,259.5284,8.4992e-05,1.065e-05,0.0,0 STARLINK-4684,1 53595U 22104H   23346.15438694  .00001065  00000-0  84992-4 0  9992,2 53595  53.2175 318.6822 0001824 100.5913 259.5284 15.08836186 71768,6917.892,95.438,541.019,538.495,0.0
53595.0,STARLINK-4684,PAYLOAD,2023-12-13 05:08:29,15.08840661,0.0002015,53.2184,313.9321,109.6159,250.5051,0.00013009,1.783e-05,0.0,0 STARLINK-4684,1 53595U 22104H   23347.21422640  .00001783  00000-0  13009-3 0  9991,2 53595  53.2184 313.9321 0002015 109.6159 250.5051 15.08840661 71929,6917.878,95.438,541.137,538.349,0.0
53595.0,STARLINK-4684,PAYLOAD,2023-12-14 03:23:53,15.08838673,0.0002095,53.2181,309.7677,113.8592,246.262,9.3708e-05,1.203e-05,0.0,0 STARLINK-4684,1 53595U 22104H   23348.14159006  .00001203  00000-0  93708-4 0  9999,2 53595  53.2181 309.7677 0002095 113.8592 246.2620 15.08838673 72069,6917.884,95.438,541.199,538.3,0.0
53595.0,STARLINK-4684,PAYLOAD,2023-12-14 04:59:16,15.0884079,0.0001878,53.2179,309.4654,99.9051,260.2153,0.00010805,1.432e-05,0.0,0 STARLINK-4684,1 53595U 22104H   23348.20782932  .00001432  00000-0  10805-3 0  9996,2 53595  53.2179 309.4654 0001878  99.9051 260.2153 15.08840790 72688,6917.878,95.438,541.042,538.444,0.0
53595.0,STARLINK-4684,PAYLOAD,2023-12-15 04:50:02,15.08854035,0.0001874,53.2171,305.0036,86.4946,273.626,0.00018387,2.64e-05,0.0,0 STARLINK-4684,1 53595U 22104H   23349.20142023  .00002640  00000-0  18387-3 0  9993,2 53595  53.2171 305.0036 0001874  86.4946 273.6260 15.08854035 72220,6917.837,95.437,540.999,538.406,0.0
53595.0,STARLINK-4684,PAYLOAD,2023-12-16 03:05:27,15.08834183,0.0001866,53.2175,300.8379,76.0601,284.0599,-1.7833e-05,-5.72e-06,0.0,0 STARLINK-4684,1 53595U 22104H   23350.12879315 -.00000572  00000-0 -17833-4 0  9997,2 53595  53.2175 300.8379 0001866  76.0601 284.0599 15.08834183 72369,6917.898,95.438,541.054,538.472,0.0
